CCSDS_OMM_VERS = 2.0
CREATION_DATE  = 
ORIGINATOR     = 

OBJECT_NAME    = STARLINK-36772
OBJECT_ID      = 2026-026A
CENTER_NAME    = EARTH
REF_FRAME      = TEME
TIME_SYSTEM    = UTC
MEAN_ELEMENT_THEORY = SGP/SGP4

EPOCH          = 2026-03-12T06:00:00.999648
MEAN_MOTION    = 15.37305344
ECCENTRICITY   = .00007673
INCLINATION    = 97.2840
RA_OF_ASC_NODE = 125.7614
ARG_OF_PERICENTER = 103.1583
MEAN_ANOMALY   = 283.8303

EPHEMERIS_TYPE = 0
CLASSIFICATION_TYPE = U
NORAD_CAT_ID   = 67721
ELEMENT_SET_NO = 999
REV_AT_EPOCH   = 572
BSTAR          = -.11349307E+0
MEAN_MOTION_DOT = -.3635721E-1
MEAN_MOTION_DDOT = 0

CCSDS_OMM_VERS = 2.0
CREATION_DATE  = 
ORIGINATOR     = 

OBJECT_NAME    = STARLINK-36796
OBJECT_ID      = 2026-026B
CENTER_NAME    = EARTH
REF_FRAME      = TEME
TIME_SYSTEM    = UTC
MEAN_ELEMENT_THEORY = SGP/SGP4

EPOCH          = 2026-03-12T06:00:00.999648
MEAN_MOTION    = 15.34945287
ECCENTRICITY   = .00020819
INCLINATION    = 97.2843
RA_OF_ASC_NODE = 125.7500
ARG_OF_PERICENTER = 75.7031
MEAN_ANOMALY   = 284.8159

EPHEMERIS_TYPE = 0
CLASSIFICATION_TYPE = U
NORAD_CAT_ID   = 67722
ELEMENT_SET_NO = 999
REV_AT_EPOCH   = 572
BSTAR          = -.34989039E-1
MEAN_MOTION_DOT = -.1085971E-1
MEAN_MOTION_DDOT = 0

CCSDS_OMM_VERS = 2.0
CREATION_DATE  = 
ORIGINATOR     = 

OBJECT_NAME    = STARLINK-36369
OBJECT_ID      = 2026-026C
CENTER_NAME    = EARTH
REF_FRAME      = TEME
TIME_SYSTEM    = UTC
MEAN_ELEMENT_THEORY = SGP/SGP4

EPOCH          = 2026-03-12T06:00:00.999648
MEAN_MOTION    = 15.38712052
ECCENTRICITY   = .00014112
INCLINATION    = 97.2846
RA_OF_ASC_NODE = 125.7745
ARG_OF_PERICENTER = 75.3757
MEAN_ANOMALY   = 336.0987

EPHEMERIS_TYPE = 0
CLASSIFICATION_TYPE = U
NORAD_CAT_ID   = 67723
ELEMENT_SET_NO = 999
REV_AT_EPOCH   = 572
BSTAR          = -.54714292E-1
MEAN_MOTION_DOT = -.1876235E-1
MEAN_MOTION_DDOT = 0

CCSDS_OMM_VERS = 2.0
CREATION_DATE  = 
ORIGINATOR     = 

OBJECT_NAME    = STARLINK-36752
OBJECT_ID      = 2026-026D
CENTER_NAME    = EARTH
REF_FRAME      = TEME
TIME_SYSTEM    = UTC
MEAN_ELEMENT_THEORY = SGP/SGP4

EPOCH          = 2026-03-12T06:00:00.999648
MEAN_MOTION    = 15.36653900
ECCENTRICITY   = .00015654
INCLINATION    = 97.2836
RA_OF_ASC_NODE = 125.7853
ARG_OF_PERICENTER = 68.8839
MEAN_ANOMALY   = 5.0149

EPHEMERIS_TYPE = 0
CLASSIFICATION_TYPE = U
NORAD_CAT_ID   = 67724
ELEMENT_SET_NO = 999
REV_AT_EPOCH   = 572
BSTAR          = -.5757142E-1
MEAN_MOTION_DOT = -.1849244E-1
MEAN_MOTION_DDOT = 0

CCSDS_OMM_VERS = 2.0
CREATION_DATE  = 
ORIGINATOR     = 

OBJECT_NAME    = STARLINK-36754
OBJECT_ID      = 2026-026E
CENTER_NAME    = EARTH
REF_FRAME      = TEME
TIME_SYSTEM    = UTC
MEAN_ELEMENT_THEORY = SGP/SGP4

EPOCH          = 2026-03-12T06:00:00.999648
MEAN_MOTION    = 15.37660193
ECCENTRICITY   = .00013992
INCLINATION    = 97.2850
RA_OF_ASC_NODE = 125.7614
ARG_OF_PERICENTER = 85.5936
MEAN_ANOMALY   = 294.8334

EPHEMERIS_TYPE = 0
CLASSIFICATION_TYPE = U
NORAD_CAT_ID   = 67725
ELEMENT_SET_NO = 999
REV_AT_EPOCH   = 572
BSTAR          = -.56240114E-1
MEAN_MOTION_DOT = -.1864663E-1
MEAN_MOTION_DDOT = 0

CCSDS_OMM_VERS = 2.0
CREATION_DATE  = 
ORIGINATOR     = 

OBJECT_NAME    = STARLINK-36755
OBJECT_ID      = 2026-026F
CENTER_NAME    = EARTH
REF_FRAME      = TEME
TIME_SYSTEM    = UTC
MEAN_ELEMENT_THEORY = SGP/SGP4

EPOCH          = 2026-03-12T01:16:12.274176
MEAN_MOTION    = 15.49074201
ECCENTRICITY   = .00026664
INCLINATION    = 97.2864
RA_OF_ASC_NODE = 125.5576
ARG_OF_PERICENTER = 35.6563
MEAN_ANOMALY   = 324.4866

EPHEMERIS_TYPE = 0
CLASSIFICATION_TYPE = U
NORAD_CAT_ID   = 67726
ELEMENT_SET_NO = 999
REV_AT_EPOCH   = 448
BSTAR          = .13195025E-3
MEAN_MOTION_DOT = .7064E-4
MEAN_MOTION_DDOT = 0

CCSDS_OMM_VERS = 2.0
CREATION_DATE  = 
ORIGINATOR     = 

OBJECT_NAME    = STARLINK-36741
OBJECT_ID      = 2026-026G
CENTER_NAME    = EARTH
REF_FRAME      = TEME
TIME_SYSTEM    = UTC
MEAN_ELEMENT_THEORY = SGP/SGP4

EPOCH          = 2026-03-12T06:00:00.999648
MEAN_MOTION    = 15.39654830
ECCENTRICITY   = .00013221
INCLINATION    = 97.2843
RA_OF_ASC_NODE = 125.7586
ARG_OF_PERICENTER = 78.9947
MEAN_ANOMALY   = 296.2021

EPHEMERIS_TYPE = 0
CLASSIFICATION_TYPE = U
NORAD_CAT_ID   = 67727
ELEMENT_SET_NO = 999
REV_AT_EPOCH   = 572
BSTAR          = -.52849897E-1
MEAN_MOTION_DOT = -.1870046E-1
MEAN_MOTION_DDOT = 0

CCSDS_OMM_VERS = 2.0
CREATION_DATE  = 
ORIGINATOR     = 

OBJECT_NAME    = STARLINK-36757
OBJECT_ID      = 2026-026H
CENTER_NAME    = EARTH
REF_FRAME      = TEME
TIME_SYSTEM    = UTC
MEAN_ELEMENT_THEORY = SGP/SGP4

EPOCH          = 2026-03-12T06:00:00.999648
MEAN_MOTION    = 15.37881365
ECCENTRICITY   = .00016898
INCLINATION    = 97.2851
RA_OF_ASC_NODE = 125.8072
ARG_OF_PERICENTER = 59.8541
MEAN_ANOMALY   = 66.9588

EPHEMERIS_TYPE = 0
CLASSIFICATION_TYPE = U
NORAD_CAT_ID   = 67728
ELEMENT_SET_NO = 999
REV_AT_EPOCH   = 572
BSTAR          = -.57191927E-1
MEAN_MOTION_DOT = -.1905429E-1
MEAN_MOTION_DDOT = 0

CCSDS_OMM_VERS = 2.0
CREATION_DATE  = 
ORIGINATOR     = 

OBJECT_NAME    = STARLINK-36751
OBJECT_ID      = 2026-026J
CENTER_NAME    = EARTH
REF_FRAME      = TEME
TIME_SYSTEM    = UTC
MEAN_ELEMENT_THEORY = SGP/SGP4

EPOCH          = 2026-03-12T06:00:00.999648
MEAN_MOTION    = 15.37895361
ECCENTRICITY   = .00018536
INCLINATION    = 97.2849
RA_OF_ASC_NODE = 125.8198
ARG_OF_PERICENTER = 67.6541
MEAN_ANOMALY   = 88.8476

EPHEMERIS_TYPE = 0
CLASSIFICATION_TYPE = U
NORAD_CAT_ID   = 67729
ELEMENT_SET_NO = 999
REV_AT_EPOCH   = 572
BSTAR          = -.56011229E-1
MEAN_MOTION_DOT = -.1870905E-1
MEAN_MOTION_DDOT = 0

CCSDS_OMM_VERS = 2.0
CREATION_DATE  = 
ORIGINATOR     = 

OBJECT_NAME    = STARLINK-36747
OBJECT_ID      = 2026-026K
CENTER_NAME    = EARTH
REF_FRAME      = TEME
TIME_SYSTEM    = UTC
MEAN_ELEMENT_THEORY = SGP/SGP4

EPOCH          = 2026-03-12T06:00:00.999648
MEAN_MOTION    = 15.37782597
ECCENTRICITY   = .00018067
INCLINATION    = 97.2847
RA_OF_ASC_NODE = 125.8147
ARG_OF_PERICENTER = 62.6730
MEAN_ANOMALY   = 81.4352

EPHEMERIS_TYPE = 0
CLASSIFICATION_TYPE = U
NORAD_CAT_ID   = 67730
ELEMENT_SET_NO = 999
REV_AT_EPOCH   = 572
BSTAR          = -.56731544E-1
MEAN_MOTION_DOT = -.1886248E-1
MEAN_MOTION_DDOT = 0

CCSDS_OMM_VERS = 2.0
CREATION_DATE  = 
ORIGINATOR     = 

OBJECT_NAME    = STARLINK-36315
OBJECT_ID      = 2026-026L
CENTER_NAME    = EARTH
REF_FRAME      = TEME
TIME_SYSTEM    = UTC
MEAN_ELEMENT_THEORY = SGP/SGP4

EPOCH          = 2026-03-12T06:00:00.999648
MEAN_MOTION    = 15.38253527
ECCENTRICITY   = .00018133
INCLINATION    = 97.2854
RA_OF_ASC_NODE = 125.8253
ARG_OF_PERICENTER = 71.2887
MEAN_ANOMALY   = 98.8213

EPHEMERIS_TYPE = 0
CLASSIFICATION_TYPE = U
NORAD_CAT_ID   = 67731
ELEMENT_SET_NO = 999
REV_AT_EPOCH   = 572
BSTAR          = -.55897926E-1
MEAN_MOTION_DOT = -.1887225E-1
MEAN_MOTION_DDOT = 0

CCSDS_OMM_VERS = 2.0
CREATION_DATE  = 
ORIGINATOR     = 

OBJECT_NAME    = STARLINK-36260
OBJECT_ID      = 2026-026M
CENTER_NAME    = EARTH
REF_FRAME      = TEME
TIME_SYSTEM    = UTC
MEAN_ELEMENT_THEORY = SGP/SGP4

EPOCH          = 2026-03-12T06:00:00.999648
MEAN_MOTION    = 15.38356185
ECCENTRICITY   = .00019585
INCLINATION    = 97.2850
RA_OF_ASC_NODE = 125.8329
ARG_OF_PERICENTER = 73.1140
MEAN_ANOMALY   = 114.9293

EPHEMERIS_TYPE = 0
CLASSIFICATION_TYPE = U
NORAD_CAT_ID   = 67732
ELEMENT_SET_NO = 999
REV_AT_EPOCH   = 572
BSTAR          = -.55588215E-1
MEAN_MOTION_DOT = -.1883575E-1
MEAN_MOTION_DDOT = 0

