STARLINK-36772          
1 67721U 26026A   26071.25001157 -.03635721  00000+0 -11349+0 0  9991
2 67721  97.2840 125.7614 0000767 103.1583 283.8303 15.37305344  5728
STARLINK-36796          
1 67722U 26026B   26071.25001157 -.01085971  00000+0 -34989-1 0  9993
2 67722  97.2843 125.7500 0002081  75.7031 284.8159 15.34945287  5722
STARLINK-36369          
1 67723U 26026C   26071.25001157 -.01876235  00000+0 -54714-1 0  9993
2 67723  97.2846 125.7745 0001411  75.3757 336.0987 15.38712052  5729
STARLINK-36752          
1 67724U 26026D   26071.25001157 -.01849244  00000+0 -57571-1 0  9998
2 67724  97.2836 125.7853 0001565  68.8839   5.0149 15.36653900  5724
STARLINK-36754          
1 67725U 26026E   26071.25001157 -.01864663  00000+0 -56240-1 0  9993
2 67725  97.2850 125.7614 0001399  85.5936 294.8334 15.37660193  5722
STARLINK-36755          
1 67726U 26026F   26071.05291984  .00007064  00000+0  13195-3 0  9996
2 67726  97.2864 125.5576 0002666  35.6563 324.4866 15.49074201  4487
STARLINK-36741          
1 67727U 26026G   26071.25001157 -.01870046  00000+0 -52850-1 0  9990
2 67727  97.2843 125.7586 0001322  78.9947 296.2021 15.39654830  5720
STARLINK-36757          
1 67728U 26026H   26071.25001157 -.01905429  00000+0 -57192-1 0  9999
2 67728  97.2851 125.8072 0001689  59.8541  66.9588 15.37881365  5728
STARLINK-36751          
1 67729U 26026J   26071.25001157 -.01870905  00000+0 -56011-1 0  9999
2 67729  97.2849 125.8198 0001853  67.6541  88.8476 15.37895361  5725
STARLINK-36747          
1 67730U 26026K   26071.25001157 -.01886248  00000+0 -56732-1 0  9998
2 67730  97.2847 125.8147 0001806  62.6730  81.4352 15.37782597  5720
STARLINK-36315          
1 67731U 26026L   26071.25001157 -.01887225  00000+0 -55898-1 0  9997
2 67731  97.2854 125.8253 0001813  71.2887  98.8213 15.38253527  5729
STARLINK-36260          
1 67732U 26026M   26071.25001157 -.01883575  00000+0 -55588-1 0  9998
2 67732  97.2850 125.8329 0001958  73.1140 114.9293 15.38356185  5725
